{
  "norad_id": 66292,
  "name": "STARLINK-35798",
  "history": [
    {
      "epoch": "2026-03-28T17:36:54.684000Z",
      "apogee_km": 476.13853046189524,
      "perigee_km": 474.24111839728266,
      "latitude_deg": -2.618151949001756e-05,
      "longitude_deg": 12.301464483565159,
      "height_km": 476.08184825939185,
      "semi_major_axis_km": 6853.326824429589,
      "eccentricity": 0.00013843,
      "inclination_deg": 53.1582,
      "raan_deg": 102.6795,
      "arg_perigee_deg": 89.6553,
      "mean_anomaly_deg": 270.4606,
      "mean_motion_rev_day": 15.30208455
    },
    {
      "epoch": "2026-03-29T04:35:17.024928Z",
      "apogee_km": 475.9122045913018,
      "perigee_km": 474.5209738126932,
      "latitude_deg": -3.545121442014027e-06,
      "longitude_deg": -154.8645457169028,
      "height_km": 475.63696681959675,
      "semi_major_axis_km": 6853.353589201997,
      "eccentricity": 0.0001015,
      "inclination_deg": 53.1569,
      "raan_deg": 100.5572,
      "arg_perigee_deg": 46.5846,
      "mean_anomaly_deg": 313.5239,
      "mean_motion_rev_day": 15.30199491
    },
    {
      "epoch": "2026-03-30T00:57:58.776768Z",
      "apogee_km": 475.821763391853,
      "perigee_km": 474.57993857325437,
      "latitude_deg": -2.9562122356983895e-05,
      "longitude_deg": -105.32353622529207,
      "height_km": 475.9264101491198,
      "semi_major_axis_km": 6853.337850982553,
      "eccentricity": 9.06e-05,
      "inclination_deg": 53.1579,
      "raan_deg": 96.6091,
      "arg_perigee_deg": 73.8377,
      "mean_anomaly_deg": 286.2723,
      "mean_motion_rev_day": 15.30204762
    },
    {
      "epoch": "2026-03-30T00:57:58.777632Z",
      "apogee_km": 475.82169485847317,
      "perigee_km": 474.5800071066333,
      "latitude_deg": -2.867623742594276e-05,
      "longitude_deg": -105.32353917507614,
      "height_km": 475.9264292256574,
      "semi_major_axis_km": 6853.337850982553,
      "eccentricity": 9.059e-05,
      "inclination_deg": 53.1579,
      "raan_deg": 96.6091,
      "arg_perigee_deg": 73.8377,
      "mean_anomaly_deg": 286.2723,
      "mean_motion_rev_day": 15.30204762
    },
    {
      "epoch": "2026-03-30T10:22:17.874048Z",
      "apogee_km": 476.0794905649627,
      "perigee_km": 474.2726831027494,
      "latitude_deg": -3.6476365383327397e-06,
      "longitude_deg": 111.39424939353663,
      "height_km": 475.9880753932233,
      "semi_major_axis_km": 6853.313086833856,
      "eccentricity": 0.00013182,
      "inclination_deg": 53.1577,
      "raan_deg": 94.7927,
      "arg_perigee_deg": 84.5509,
      "mean_anomaly_deg": 275.5642,
      "mean_motion_rev_day": 15.30213056
    },
    {
      "epoch": "2026-03-31T09:53:05.662176Z",
      "apogee_km": 476.01230739726725,
      "perigee_km": 474.4504247466384,
      "latitude_deg": 9.116336344848176e-06,
      "longitude_deg": 113.17768706866912,
      "height_km": 476.0710042105283,
      "semi_major_axis_km": 6853.368366071953,
      "eccentricity": 0.00011395,
      "inclination_deg": 53.1579,
      "raan_deg": 90.2409,
      "arg_perigee_deg": 85.712,
      "mean_anomaly_deg": 274.4011,
      "mean_motion_rev_day": 15.30194542
    },
    {
      "epoch": "2026-04-01T09:23:53.551392Z",
      "apogee_km": 475.9875743897537,
      "perigee_km": 474.3605983378511,
      "latitude_deg": 2.287212440072474e-05,
      "longitude_deg": 114.96120320345624,
      "height_km": 476.0808622458181,
      "semi_major_axis_km": 6853.311086363802,
      "eccentricity": 0.0001187,
      "inclination_deg": 53.1581,
      "raan_deg": 85.6896,
      "arg_perigee_deg": 90.6191,
      "mean_anomaly_deg": 269.4946,
      "mean_motion_rev_day": 15.30213726
    },
    {
      "epoch": "2026-04-02T16:44:57.264864Z",
      "apogee_km": 476.21330027433487,
      "perigee_km": 474.0627425726125,
      "latitude_deg": -4.134739000952805e-05,
      "longitude_deg": -2.661957321026249,
      "height_km": 476.0308098127523,
      "semi_major_axis_km": 6853.275021423474,
      "eccentricity": 0.0001569,
      "inclination_deg": 53.1593,
      "raan_deg": 79.6195,
      "arg_perigee_deg": 89.7436,
      "mean_anomaly_deg": 270.3744,
      "mean_motion_rev_day": 15.30225805
    },
    {
      "epoch": "2026-04-02T16:44:57.265728Z",
      "apogee_km": 476.2131632088349,
      "perigee_km": 474.0628796381134,
      "latitude_deg": 4.1022252347462345e-05,
      "longitude_deg": -2.661899560494129,
      "height_km": 476.0307981040496,
      "semi_major_axis_km": 6853.275021423474,
      "eccentricity": 0.00015688,
      "inclination_deg": 53.1593,
      "raan_deg": 79.6195,
      "arg_perigee_deg": 89.7436,
      "mean_anomaly_deg": 270.3745,
      "mean_motion_rev_day": 15.30225805
    },
    {
      "epoch": "2026-04-03T16:15:45.520416Z",
      "apogee_km": 476.24555239446727,
      "perigee_km": 474.1963983598298,
      "latitude_deg": 7.762145163938555e-05,
      "longitude_deg": -0.8787945258392592,
      "height_km": 476.00987489163754,
      "semi_major_axis_km": 6853.357975377148,
      "eccentricity": 0.0001495,
      "inclination_deg": 53.1601,
      "raan_deg": 75.0693,
      "arg_perigee_deg": 83.9,
      "mean_anomaly_deg": 276.2172,
      "mean_motion_rev_day": 15.30198022
    },
    {
      "epoch": "2026-04-04T07:56:17.918880Z",
      "apogee_km": 476.10718942180756,
      "perigee_km": 474.2610417796868,
      "latitude_deg": -9.595145115487501e-06,
      "longitude_deg": 120.30816981891294,
      "height_km": 476.1857625785614,
      "semi_major_axis_km": 6853.321115600746,
      "eccentricity": 0.00013469,
      "inclination_deg": 53.16,
      "raan_deg": 72.0351,
      "arg_perigee_deg": 96.448,
      "mean_anomaly_deg": 263.6674,
      "mean_motion_rev_day": 15.30210367
    },
    {
      "epoch": "2026-04-05T07:27:05.776992Z",
      "apogee_km": 476.1838273341318,
      "perigee_km": 474.24981088637924,
      "latitude_deg": 6.060095050409108e-05,
      "longitude_deg": 122.09595545689788,
      "height_km": 475.8981621011039,
      "semi_major_axis_km": 6853.353819110255,
      "eccentricity": 0.0001411,
      "inclination_deg": 53.1604,
      "raan_deg": 67.4879,
      "arg_perigee_deg": 77.055,
      "mean_anomaly_deg": 283.0609,
      "mean_motion_rev_day": 15.30199414
    },
    {
      "epoch": "2026-04-06T05:23:50.302464Z",
      "apogee_km": 475.9203591167152,
      "perigee_km": 474.4257892557371,
      "latitude_deg": -2.187379216871653e-05,
      "longitude_deg": 147.75889148242976,
      "height_km": 476.21924699708006,
      "semi_major_axis_km": 6853.310074186226,
      "eccentricity": 0.00010904,
      "inclination_deg": 53.1615,
      "raan_deg": 63.2377,
      "arg_perigee_deg": 101.3962,
      "mean_anomaly_deg": 258.7161,
      "mean_motion_rev_day": 15.30214065
    },
    {
      "epoch": "2026-04-07T04:54:38.251296Z",
      "apogee_km": 476.091653591071,
      "perigee_km": 474.2741531526963,
      "latitude_deg": 9.207291819197548e-06,
      "longitude_deg": 149.54676761179172,
      "height_km": 475.98958063494325,
      "semi_major_axis_km": 6853.319903371884,
      "eccentricity": 0.0001326,
      "inclination_deg": 53.1605,
      "raan_deg": 58.691,
      "arg_perigee_deg": 84.2283,
      "mean_anomaly_deg": 275.8869,
      "mean_motion_rev_day": 15.30210773
    },
    {
      "epoch": "2026-04-08T13:49:45.848640Z",
      "apogee_km": 476.12362125823347,
      "perigee_km": 474.3803932303508,
      "latitude_deg": 4.9437243745546744e-05,
      "longitude_deg": 8.039111738689707,
      "height_km": 476.40038025891255,
      "semi_major_axis_km": 6853.389007244292,
      "eccentricity": 0.00012718,
      "inclination_deg": 53.1602,
      "raan_deg": 52.3169,
      "arg_perigee_deg": 106.6832,
      "mean_anomaly_deg": 253.4309,
      "mean_motion_rev_day": 15.30187629
    },
    {
      "epoch": "2026-04-09T21:10:50.971296Z",
      "apogee_km": 476.127780592039,
      "perigee_km": 474.2225598087243,
      "latitude_deg": -5.2473646076851065e-06,
      "longitude_deg": -109.58673446875007,
      "height_km": 476.4213614091021,
      "semi_major_axis_km": 6853.312170200382,
      "eccentricity": 0.000139,
      "inclination_deg": 53.1592,
      "raan_deg": 46.25,
      "arg_perigee_deg": 111.442,
      "mean_anomaly_deg": 248.6729,
      "mean_motion_rev_day": 15.30213363
    },
    {
      "epoch": "2026-04-10T12:51:21.775680Z",
      "apogee_km": 476.03537550318833,
      "perigee_km": 474.17540551840466,
      "latitude_deg": 3.631078728400765e-05,
      "longitude_deg": 11.606984723420698,
      "height_km": 476.1765793503724,
      "semi_major_axis_km": 6853.242390510796,
      "eccentricity": 0.0001357,
      "inclination_deg": 53.1592,
      "raan_deg": 43.2158,
      "arg_perigee_deg": 100.7385,
      "mean_anomaly_deg": 259.3769,
      "mean_motion_rev_day": 15.30236734
    },
    {
      "epoch": "2026-04-11T20:12:31.925088Z",
      "apogee_km": 483.46440180193895,
      "perigee_km": 469.2207931983339,
      "latitude_deg": 1.0502654733198012e-05,
      "longitude_deg": -106.04114065846046,
      "height_km": 475.27176798048816,
      "semi_major_axis_km": 6854.479597500136,
      "eccentricity": 0.001039,
      "inclination_deg": 53.1612,
      "raan_deg": 37.1476,
      "arg_perigee_deg": 74.0944,
      "mean_anomaly_deg": 286.1201,
      "mean_motion_rev_day": 15.2982245
    },
    {
      "epoch": "2026-04-13T01:59:26.327040Z",
      "apogee_km": 475.5922716035893,
      "perigee_km": 474.9113188928932,
      "latitude_deg": 3.504126771359987e-05,
      "longitude_deg": 160.24440793955227,
      "height_km": 475.86319208961027,
      "semi_major_axis_km": 6853.388795248241,
      "eccentricity": 4.968e-05,
      "inclination_deg": 53.1629,
      "raan_deg": 31.3829,
      "arg_perigee_deg": 328.0592,
      "mean_anomaly_deg": 32.0379,
      "mean_motion_rev_day": 15.301877
    }
  ]
}